{
  "type": "FeatureCollection",
  "features": [
    {
      "type": "Feature",
      "properties": {
        "norad_id": 35671,
        "name": "COSMOS 2251 DEB",
        "group": "cosmos-2251-debris",
        "lat": -67.59656113688827,
        "lon": 10.969409242216878,
        "alt_km": 722.9192817453222,
        "timestamp": "2025-12-25T16:53:15.060223+00:00",
        "meta_object_name": "COSMOS 2251 DEB",
        "meta_object_id": "1993-036APN",
        "meta_epoch": "2025-12-17T12:02:51.877248",
        "meta_mean_motion": 14.48356669,
        "meta_eccentricity": 0.00414327,
        "meta_inclination": 74.0178,
        "meta_ra_of_asc_node": 70.3857,
        "meta_arg_of_pericenter": 243.6268,
        "meta_mean_anomaly": 134.9759,
        "meta_ephemeris_type": 0,
        "meta_classification_type": "U",
        "meta_norad_cat_id": 35671,
        "meta_element_set_no": 999,
        "meta_rev_at_epoch": 86832,
        "meta_bstar": 0.00018080216,
        "meta_mean_motion_dot": 6.55e-06,
        "meta_mean_motion_ddot": 0,
        "tle_line1": "1 35671U 93036APN 25351.50198932  .00000655  00000+0  18080-3 0  9991",
        "tle_line2": "2 35671  74.0178  70.3857 0041432 243.6268 134.9759 14.48356669868323"
      },
      "geometry": {
        "type": "Point",
        "coordinates": [
          10.969409242216878,
          -67.59656113688827
        ]
      }
    },
    {
      "type": "Feature",
      "properties": {
        "norad_id": 35674,
        "name": "COSMOS 2251 DEB",
        "group": "cosmos-2251-debris",
        "lat": 71.0084791983997,
        "lon": -11.843046295043305,
        "alt_km": 721.9858364201327,
        "timestamp": "2025-12-25T16:53:15.060233+00:00",
        "meta_object_name": "COSMOS 2251 DEB",
        "meta_object_id": "1993-036APR",
        "meta_epoch": "2025-12-24T19:03:54.003456",
        "meta_mean_motion": 14.54389628,
        "meta_eccentricity": 0.00963199,
        "meta_inclination": 74.0626,
        "meta_ra_of_asc_node": 293.7457,
        "meta_arg_of_pericenter": 335.7924,
        "meta_mean_anomaly": 23.8726,
        "meta_ephemeris_type": 0,
        "meta_classification_type": "U",
        "meta_norad_cat_id": 35674,
        "meta_element_set_no": 999,
        "meta_rev_at_epoch": 86286,
        "meta_bstar": 0.0018628076,
        "meta_mean_motion_dot": 8.404e-05,
        "meta_mean_motion_ddot": 0,
        "tle_line1": "1 35674U 93036APR 25358.79437504  .00008404  00000+0  18628-2 0  9990",
        "tle_line2": "2 35674  74.0626 293.7457 0096319 335.7924  23.8726 14.54389628862868"
      },
      "geometry": {
        "type": "Point",
        "coordinates": [
          -11.843046295043305,
          71.0084791983997
        ]
      }
    },
    {
      "type": "Feature",
      "properties": {
        "norad_id": 35701,
        "name": "COSMOS 2251 DEB",
        "group": "cosmos-2251-debris",
        "lat": -21.065476159361047,
        "lon": 106.92693024379852,
        "alt_km": 904.6823427045438,
        "timestamp": "2025-12-25T16:53:15.060243+00:00",
        "meta_object_name": "COSMOS 2251 DEB",
        "meta_object_id": "1993-036APW",
        "meta_epoch": "2025-12-23T03:05:16.939392",
        "meta_mean_motion": 13.80906206,
        "meta_eccentricity": 0.0288749,
        "meta_inclination": 74.0066,
        "meta_ra_of_asc_node": 284.9129,
        "meta_arg_of_pericenter": 131.8115,
        "meta_mean_anomaly": 230.8064,
        "meta_ephemeris_type": 0,
        "meta_classification_type": "U",
        "meta_norad_cat_id": 35701,
        "meta_element_set_no": 999,
        "meta_rev_at_epoch": 62302,
        "meta_bstar": 0.0013474955,
        "meta_mean_motion_dot": 1.927e-05,
        "meta_mean_motion_ddot": 0,
        "tle_line1": "1 35701U 93036APW 25357.12866828  .00001927  00000+0  13475-2 0  9990",
        "tle_line2": "2 35701  74.0066 284.9129 0288749 131.8115 230.8064 13.80906206623025"
      },
      "geometry": {
        "type": "Point",
        "coordinates": [
          106.92693024379852,
          -21.065476159361047
        ]
      }
    },
    {
      "type": "Feature",
      "properties": {
        "norad_id": 35703,
        "name": "COSMOS 2251 DEB",
        "group": "cosmos-2251-debris",
        "lat": -69.30961795791372,
        "lon": -32.44356706408636,
        "alt_km": 645.2524817313106,
        "timestamp": "2025-12-25T16:53:15.060253+00:00",
        "meta_object_name": "COSMOS 2251 DEB",
        "meta_object_id": "1993-036APY",
        "meta_epoch": "2025-12-24T09:00:55.190592",
        "meta_mean_motion": 14.90483201,
        "meta_eccentricity": 0.00644143,
        "meta_inclination": 74.0417,
        "meta_ra_of_asc_node": 19.4725,
        "meta_arg_of_pericenter": 85.5638,
        "meta_mean_anomaly": 275.2899,
        "meta_ephemeris_type": 0,
        "meta_classification_type": "U",
        "meta_norad_cat_id": 35703,
        "meta_element_set_no": 999,
        "meta_rev_at_epoch": 66789,
        "meta_bstar": 0.00063398121,
        "meta_mean_motion_dot": 6.404e-05,
        "meta_mean_motion_ddot": 0,
        "tle_line1": "1 35703U 93036APY 25358.37563878  .00006404  00000+0  63398-3 0  9994",
        "tle_line2": "2 35703  74.0417  19.4725 0064414  85.5638 275.2899 14.90483201667895"
      },
      "geometry": {
        "type": "Point",
        "coordinates": [
          -32.44356706408636,
          -69.30961795791372
        ]
      }
    },
    {
      "type": "Feature",
      "properties": {
        "norad_id": 35705,
        "name": "COSMOS 2251 DEB",
        "group": "cosmos-2251-debris",
        "lat": -50.35216890390927,
        "lon": 91.07837752969196,
        "alt_km": 666.2924959513703,
        "timestamp": "2025-12-25T16:53:15.060264+00:00",
        "meta_object_name": "COSMOS 2251 DEB",
        "meta_object_id": "1993-036AQA",
        "meta_epoch": "2025-12-21T00:37:19.012800",
        "meta_mean_motion": 14.72474593,
        "meta_eccentricity": 0.00333276,
        "meta_inclination": 74.2752,
        "meta_ra_of_asc_node": 119.9236,
        "meta_arg_of_pericenter": 64.9174,
        "meta_mean_anomaly": 295.5452,
        "meta_ephemeris_type": 0,
        "meta_classification_type": "U",
        "meta_norad_cat_id": 35705,
        "meta_element_set_no": 999,
        "meta_rev_at_epoch": 86048,
        "meta_bstar": 0.0022061245,
        "meta_mean_motion_dot": 0.00014123,
        "meta_mean_motion_ddot": 0,
        "tle_line1": "1 35705U 93036AQA 25355.02591450  .00014123  00000+0  22061-2 0  9990",
        "tle_line2": "2 35705  74.2752 119.9236 0033327  64.9174 295.5452 14.72474593860483"
      },
      "geometry": {
        "type": "Point",
        "coordinates": [
          91.07837752969196,
          -50.35216890390927
        ]
      }
    },
    {
      "type": "Feature",
      "properties": {
        "norad_id": 35706,
        "name": "COSMOS 2251 DEB",
        "group": "cosmos-2251-debris",
        "lat": -70.49494903310307,
        "lon": -13.285954773379615,
        "alt_km": 1266.1425480948747,
        "timestamp": "2025-12-25T16:53:15.060274+00:00",
        "meta_object_name": "COSMOS 2251 DEB",
        "meta_object_id": "1993-036AQB",
        "meta_epoch": "2025-12-21T09:35:04.200288",
        "meta_mean_motion": 13.65940195,
        "meta_eccentricity": 0.03399329,
        "meta_inclination": 73.889,
        "meta_ra_of_asc_node": 48.5024,
        "meta_arg_of_pericenter": 96.6435,
        "meta_mean_anomaly": 267.3485,
        "meta_ephemeris_type": 0,
        "meta_classification_type": "U",
        "meta_norad_cat_id": 35706,
        "meta_element_set_no": 999,
        "meta_rev_at_epoch": 62180,
        "meta_bstar": 0.00062720687,
        "meta_mean_motion_dot": 7.46e-06,
        "meta_mean_motion_ddot": 0,
        "tle_line1": "1 35706U 93036AQB 25355.39935417  .00000746  00000+0  62721-3 0  9990",
        "tle_line2": "2 35706  73.8890  48.5024 0339932  96.6435 267.3485 13.65940195621808"
      },
      "geometry": {
        "type": "Point",
        "coordinates": [
          -13.285954773379615,
          -70.49494903310307
        ]
      }
    },
    {
      "type": "Feature",
      "properties": {
        "norad_id": 35711,
        "name": "COSMOS 2251 DEB",
        "group": "cosmos-2251-debris",
        "lat": -55.303677425164466,
        "lon": 39.9917358961598,
        "alt_km": 652.5821331376692,
        "timestamp": "2025-12-25T16:53:15.060284+00:00",
        "meta_object_name": "COSMOS 2251 DEB",
        "meta_object_id": "1993-036AQG",
        "meta_epoch": "2025-12-24T20:06:36.909216",
        "meta_mean_motion": 14.63830182,
        "meta_eccentricity": 0.00855285,
        "meta_inclination": 74.0452,
        "meta_ra_of_asc_node": 197.2457,
        "meta_arg_of_pericenter": 295.6426,
        "meta_mean_anomaly": 63.5923,
        "meta_ephemeris_type": 0,
        "meta_classification_type": "U",
        "meta_norad_cat_id": 35711,
        "meta_element_set_no": 999,
        "meta_rev_at_epoch": 87948,
        "meta_bstar": 0.00021414488,
        "meta_mean_motion_dot": 1.145e-05,
        "meta_mean_motion_ddot": 0,
        "tle_line1": "1 35711U 93036AQG 25358.83792719  .00001145  00000+0  21414-3 0  9992",
        "tle_line2": "2 35711  74.0452 197.2457 0085528 295.6426  63.5923 14.63830182879488"
      },
      "geometry": {
        "type": "Point",
        "coordinates": [
          39.9917358961598,
          -55.303677425164466
        ]
      }
    }
  ]
}